{
  "type": "FeatureCollection",
  "features": [
    {
      "type": "Feature",
      "properties": {
        "OBJECT_NAME": "SMOS",
        "OBJECT_ID": "2009-059A",
        "EPOCH": "2025-11-30T01:59:13.477632",
        "MEAN_MOTION": 14.39784303,
        "ECCENTRICITY": 0.0001085,
        "INCLINATION": 98.4386,
        "RA_OF_ASC_NODE": 159.3178,
        "ARG_OF_PERICENTER": 73.2697,
        "MEAN_ANOMALY": 286.861,
        "EPHEMERIS_TYPE": 0,
        "CLASSIFICATION_TYPE": "U",
        "NORAD_CAT_ID": 36036,
        "ELEMENT_SET_NO": 999,
        "REV_AT_EPOCH": 84480,
        "BSTAR": 0.00016095,
        "MEAN_MOTION_DOT": 4.61e-06,
        "MEAN_MOTION_DDOT": 0,
        "norad_id": 36036,
        "name": "SMOS",
        "group": "resource",
        "longitude_deg": NaN,
        "latitude_deg": NaN,
        "alt_km": NaN,
        "orbit_class": "HEO",
        "timestamp": "2025-11-30T09:33:02.502301+00:00"
      },
      "geometry": {
        "type": "Point",
        "coordinates": [
          NaN,
          NaN
        ]
      }
    },
    {
      "type": "Feature",
      "properties": {
        "OBJECT_NAME": "YAOGAN-7",
        "OBJECT_ID": "2009-069A",
        "EPOCH": "2025-11-30T02:26:47.115744",
        "MEAN_MOTION": 14.77701727,
        "ECCENTRICITY": 0.0023974,
        "INCLINATION": 98.0304,
        "RA_OF_ASC_NODE": 215.9036,
        "ARG_OF_PERICENTER": 323.8964,
        "MEAN_ANOMALY": 36.0626,
        "EPHEMERIS_TYPE": 0,
        "CLASSIFICATION_TYPE": "U",
        "NORAD_CAT_ID": 36110,
        "ELEMENT_SET_NO": 999,
        "REV_AT_EPOCH": 86022,
        "BSTAR": 0.00012243,
        "MEAN_MOTION_DOT": 8.28e-06,
        "MEAN_MOTION_DDOT": 0,
        "norad_id": 36110,
        "name": "YAOGAN-7",
        "group": "resource",
        "longitude_deg": NaN,
        "latitude_deg": NaN,
        "alt_km": NaN,
        "orbit_class": "HEO",
        "timestamp": "2025-11-30T09:33:02.502356+00:00"
      },
      "geometry": {
        "type": "Point",
        "coordinates": [
          NaN,
          NaN
        ]
      }
    },
    {
      "type": "Feature",
      "properties": {
        "OBJECT_NAME": "TANDEM-X",
        "OBJECT_ID": "2010-030A",
        "EPOCH": "2025-11-29T14:39:40.877856",
        "MEAN_MOTION": 15.19156539,
        "ECCENTRICITY": 0.0001905,
        "INCLINATION": 97.4452,
        "RA_OF_ASC_NODE": 339.1839,
        "ARG_OF_PERICENTER": 94.2152,
        "MEAN_ANOMALY": 265.93,
        "EPHEMERIS_TYPE": 0,
        "CLASSIFICATION_TYPE": "U",
        "NORAD_CAT_ID": 36605,
        "ELEMENT_SET_NO": 999,
        "REV_AT_EPOCH": 85634,
        "BSTAR": 6.946e-05,
        "MEAN_MOTION_DOT": 1.392e-05,
        "MEAN_MOTION_DDOT": 0,
        "norad_id": 36605,
        "name": "TANDEM-X",
        "group": "resource",
        "longitude_deg": NaN,
        "latitude_deg": NaN,
        "alt_km": NaN,
        "orbit_class": "HEO",
        "timestamp": "2025-11-30T09:33:02.502539+00:00"
      },
      "geometry": {
        "type": "Point",
        "coordinates": [
          NaN,
          NaN
        ]
      }
    },
    {
      "type": "Feature",
      "properties": {
        "OBJECT_NAME": "CARTOSAT-2B",
        "OBJECT_ID": "2010-035A",
        "EPOCH": "2025-11-30T04:36:47.016576",
        "MEAN_MOTION": 14.78756968,
        "ECCENTRICITY": 0.0012802,
        "INCLINATION": 97.7871,
        "RA_OF_ASC_NODE": 23.629,
        "ARG_OF_PERICENTER": 114.3396,
        "MEAN_ANOMALY": 245.9153,
        "EPHEMERIS_TYPE": 0,
        "CLASSIFICATION_TYPE": "U",
        "NORAD_CAT_ID": 36795,
        "ELEMENT_SET_NO": 999,
        "REV_AT_EPOCH": 83044,
        "BSTAR": 0.0001284,
        "MEAN_MOTION_DOT": 8.94e-06,
        "MEAN_MOTION_DDOT": 0,
        "norad_id": 36795,
        "name": "CARTOSAT-2B",
        "group": "resource",
        "longitude_deg": NaN,
        "latitude_deg": NaN,
        "alt_km": NaN,
        "orbit_class": "HEO",
        "timestamp": "2025-11-30T09:33:02.502581+00:00"
      },
      "geometry": {
        "type": "Point",
        "coordinates": [
          NaN,
          NaN
        ]
      }
    },
    {
      "type": "Feature",
      "properties": {
        "OBJECT_NAME": "YAOGAN-10",
        "OBJECT_ID": "2010-038A",
        "EPOCH": "2025-11-30T05:43:40.255968",
        "MEAN_MOTION": 14.84540462,
        "ECCENTRICITY": 0.0001535,
        "INCLINATION": 97.9154,
        "RA_OF_ASC_NODE": 354.1531,
        "ARG_OF_PERICENTER": 85.587,
        "MEAN_ANOMALY": 340.9931,
        "EPHEMERIS_TYPE": 0,
        "CLASSIFICATION_TYPE": "U",
        "NORAD_CAT_ID": 36834,
        "ELEMENT_SET_NO": 999,
        "REV_AT_EPOCH": 82768,
        "BSTAR": 0.00011229,
        "MEAN_MOTION_DOT": 8.93e-06,
        "MEAN_MOTION_DDOT": 0,
        "norad_id": 36834,
        "name": "YAOGAN-10",
        "group": "resource",
        "longitude_deg": NaN,
        "latitude_deg": NaN,
        "alt_km": NaN,
        "orbit_class": "HEO",
        "timestamp": "2025-11-30T09:33:02.502622+00:00"
      },
      "geometry": {
        "type": "Point",
        "coordinates": [
          NaN,
          NaN
        ]
      }
    },
    {
      "type": "Feature",
      "properties": {
        "OBJECT_NAME": "COSMO-SKYMED 4",
        "OBJECT_ID": "2010-060A",
        "EPOCH": "2025-11-30T03:39:59.494752",
        "MEAN_MOTION": 14.82161883,
        "ECCENTRICITY": 0.0001495,
        "INCLINATION": 97.8815,
        "RA_OF_ASC_NODE": 155.6653,
        "ARG_OF_PERICENTER": 85.7075,
        "MEAN_ANOMALY": 274.4309,
        "EPHEMERIS_TYPE": 0,
        "CLASSIFICATION_TYPE": "U",
        "NORAD_CAT_ID": 37216,
        "ELEMENT_SET_NO": 999,
        "REV_AT_EPOCH": 81508,
        "BSTAR": 9.2674e-05,
        "MEAN_MOTION_DOT": 6.86e-06,
        "MEAN_MOTION_DDOT": 0,
        "norad_id": 37216,
        "name": "COSMO-SKYMED 4",
        "group": "resource",
        "longitude_deg": NaN,
        "latitude_deg": NaN,
        "alt_km": NaN,
        "orbit_class": "HEO",
        "timestamp": "2025-11-30T09:33:02.502759+00:00"
      },
      "geometry": {
        "type": "Point",
        "coordinates": [
          NaN,
          NaN
        ]
      }
    },
    {
      "type": "Feature",
      "properties": {
        "OBJECT_NAME": "RESOURCESAT-2",
        "OBJECT_ID": "2011-015A",
        "EPOCH": "2025-11-30T02:48:00.785664",
        "MEAN_MOTION": 14.21589148,
        "ECCENTRICITY": 0.0006877,
        "INCLINATION": 98.7893,
        "RA_OF_ASC_NODE": 37.7244,
        "ARG_OF_PERICENTER": 74.8132,
        "MEAN_ANOMALY": 285.3805,
        "EPHEMERIS_TYPE": 0,
        "CLASSIFICATION_TYPE": "U",
        "NORAD_CAT_ID": 37387,
        "ELEMENT_SET_NO": 999,
        "REV_AT_EPOCH": 75789,
        "BSTAR": 0.00010907,
        "MEAN_MOTION_DOT": 1.95e-06,
        "MEAN_MOTION_DDOT": 0,
        "norad_id": 37387,
        "name": "RESOURCESAT-2",
        "group": "resource",
        "longitude_deg": NaN,
        "latitude_deg": NaN,
        "alt_km": NaN,
        "orbit_class": "HEO",
        "timestamp": "2025-11-30T09:33:02.502829+00:00"
      },
      "geometry": {
        "type": "Point",
        "coordinates": [
          NaN,
          NaN
        ]
      }
    },
    {
      "type": "Feature",
      "properties": {
        "OBJECT_NAME": "HAIYANG-2A",
        "OBJECT_ID": "2011-043A",
        "EPOCH": "2025-11-30T05:22:26.800320",
        "MEAN_MOTION": 13.78833779,
        "ECCENTRICITY": 0.0001631,
        "INCLINATION": 99.3377,
        "RA_OF_ASC_NODE": 335.3512,
        "ARG_OF_PERICENTER": 100.4744,
        "MEAN_ANOMALY": 259.6591,
        "EPHEMERIS_TYPE": 0,
        "CLASSIFICATION_TYPE": "U",
        "NORAD_CAT_ID": 37781,
        "ELEMENT_SET_NO": 999,
        "REV_AT_EPOCH": 71926,
        "BSTAR": 5.8338e-05,
        "MEAN_MOTION_DOT": 1.5e-07,
        "MEAN_MOTION_DDOT": 0,
        "norad_id": 37781,
        "name": "HAIYANG-2A",
        "group": "resource",
        "longitude_deg": NaN,
        "latitude_deg": NaN,
        "alt_km": NaN,
        "orbit_class": "HEO",
        "timestamp": "2025-11-30T09:33:02.503000+00:00"
      },
      "geometry": {
        "type": "Point",
        "coordinates": [
          NaN,
          NaN
        ]
      }
    }
  ]
}