SMOS                    
1 36036U 09059A   25334.08279488  .00000461  00000+0  16095-3 0  9998
2 36036  98.4386 159.3178 0001085  73.2697 286.8610 14.39784303844807
YAOGAN-7                
1 36110U 09069A   25334.10193421  .00000828  00000+0  12243-3 0  9995
2 36110  98.0304 215.9036 0023974 323.8964  36.0626 14.77701727860227
TANDEM-X                
1 36605U 10030A   25333.61088979  .00001392  00000+0  69460-4 0  9991
2 36605  97.4452 339.1839 0001905  94.2152 265.9300 15.19156539856343
CARTOSAT-2B             
1 36795U 10035A   25334.19221084  .00000894  00000+0  12840-3 0  9991
2 36795  97.7871  23.6290 0012802 114.3396 245.9153 14.78756968830442
YAOGAN-10               
1 36834U 10038A   25334.23866037  .00000893  00000+0  11229-3 0  9995
2 36834  97.9154 354.1531 0001535  85.5870 340.9931 14.84540462827688
COSMO-SKYMED 4          
1 37216U 10060A   25334.15277193  .00000686  00000+0  92674-4 0  9999
2 37216  97.8815 155.6653 0001495  85.7075 274.4309 14.82161883815084
RESOURCESAT-2           
1 37387U 11015A   25334.11667576  .00000195  00000+0  10907-3 0  9996
2 37387  98.7893  37.7244 0006877  74.8132 285.3805 14.21589148757894
HAIYANG-2A              
1 37781U 11043A   25334.22392130  .00000015  00000+0  58338-4 0  9990
2 37781  99.3377 335.3512 0001631 100.4744 259.6591 13.78833779719267
